CCSDS_OMM_VERS = 2.0
CREATION_DATE  = 
ORIGINATOR     = 

OBJECT_NAME    = STARLINK-36332
OBJECT_ID      = 2026-034N
CENTER_NAME    = EARTH
REF_FRAME      = TEME
TIME_SYSTEM    = UTC
MEAN_ELEMENT_THEORY = SGP/SGP4

EPOCH          = 2026-03-05T00:00:01.999296
MEAN_MOTION    = 15.80843503
ECCENTRICITY   = .000107
INCLINATION    = 53.1585
RA_OF_ASC_NODE = 234.7546
ARG_OF_PERICENTER = 75.3785
MEAN_ANOMALY   = 32.1074

EPHEMERIS_TYPE = 0
CLASSIFICATION_TYPE = U
NORAD_CAT_ID   = 67862
ELEMENT_SET_NO = 999
REV_AT_EPOCH   = 310
BSTAR          = .26944E-3
MEAN_MOTION_DOT = .52732E-3
MEAN_MOTION_DDOT = 0

CCSDS_OMM_VERS = 2.0
CREATION_DATE  = 
ORIGINATOR     = 

OBJECT_NAME    = STARLINK-36835
OBJECT_ID      = 2026-034P
CENTER_NAME    = EARTH
REF_FRAME      = TEME
TIME_SYSTEM    = UTC
MEAN_ELEMENT_THEORY = SGP/SGP4

EPOCH          = 2026-03-05T00:00:01.999296
MEAN_MOTION    = 15.80832226
ECCENTRICITY   = .0001168
INCLINATION    = 53.1588
RA_OF_ASC_NODE = 234.7446
ARG_OF_PERICENTER = 71.2935
MEAN_ANOMALY   = 40.4503

EPHEMERIS_TYPE = 0
CLASSIFICATION_TYPE = U
NORAD_CAT_ID   = 67863
ELEMENT_SET_NO = 999
REV_AT_EPOCH   = 310
BSTAR          = .51458E-3
MEAN_MOTION_DOT = .101876E-2
MEAN_MOTION_DDOT = 0

CCSDS_OMM_VERS = 2.0
CREATION_DATE  = 
ORIGINATOR     = 

OBJECT_NAME    = STARLINK-36831
OBJECT_ID      = 2026-034Q
CENTER_NAME    = EARTH
REF_FRAME      = TEME
TIME_SYSTEM    = UTC
MEAN_ELEMENT_THEORY = SGP/SGP4

EPOCH          = 2026-03-05T04:03:50.067072
MEAN_MOTION    = 15.80968154
ECCENTRICITY   = .0001628
INCLINATION    = 53.1585
RA_OF_ASC_NODE = 233.8864
ARG_OF_PERICENTER = 49.9378
MEAN_ANOMALY   = 310.1788

EPHEMERIS_TYPE = 0
CLASSIFICATION_TYPE = U
NORAD_CAT_ID   = 67864
ELEMENT_SET_NO = 999
REV_AT_EPOCH   = 322
BSTAR          = .16156E-2
MEAN_MOTION_DOT = .3322E-2
MEAN_MOTION_DDOT = 0

CCSDS_OMM_VERS = 2.0
CREATION_DATE  = 
ORIGINATOR     = 

OBJECT_NAME    = STARLINK-36738
OBJECT_ID      = 2026-034R
CENTER_NAME    = EARTH
REF_FRAME      = TEME
TIME_SYSTEM    = UTC
MEAN_ELEMENT_THEORY = SGP/SGP4

EPOCH          = 2026-03-05T00:00:01.999296
MEAN_MOTION    = 15.80874076
ECCENTRICITY   = .0000438
INCLINATION    = 53.1587
RA_OF_ASC_NODE = 234.7274
ARG_OF_PERICENTER = 90.8552
MEAN_ANOMALY   = 29.4133

EPHEMERIS_TYPE = 0
CLASSIFICATION_TYPE = U
NORAD_CAT_ID   = 67865
ELEMENT_SET_NO = 999
REV_AT_EPOCH   = 310
BSTAR          = .15883E-3
MEAN_MOTION_DOT = .30762E-3
MEAN_MOTION_DDOT = 0

CCSDS_OMM_VERS = 2.0
CREATION_DATE  = 
ORIGINATOR     = 

OBJECT_NAME    = STARLINK-36780
OBJECT_ID      = 2026-034S
CENTER_NAME    = EARTH
REF_FRAME      = TEME
TIME_SYSTEM    = UTC
MEAN_ELEMENT_THEORY = SGP/SGP4

EPOCH          = 2026-03-05T04:00:01.999584
MEAN_MOTION    = 15.80845311
ECCENTRICITY   = .0001327
INCLINATION    = 53.1592
RA_OF_ASC_NODE = 233.8808
ARG_OF_PERICENTER = 66.7963
MEAN_ANOMALY   = 286.8348

EPHEMERIS_TYPE = 0
CLASSIFICATION_TYPE = U
NORAD_CAT_ID   = 67866
ELEMENT_SET_NO = 999
REV_AT_EPOCH   = 313
BSTAR          = .35631E-3
MEAN_MOTION_DOT = .70108E-3
MEAN_MOTION_DDOT = 0

CCSDS_OMM_VERS = 2.0
CREATION_DATE  = 
ORIGINATOR     = 

OBJECT_NAME    = STARLINK-36761
OBJECT_ID      = 2026-034T
CENTER_NAME    = EARTH
REF_FRAME      = TEME
TIME_SYSTEM    = UTC
MEAN_ELEMENT_THEORY = SGP/SGP4

EPOCH          = 2026-03-05T04:00:01.999584
MEAN_MOTION    = 15.80904910
ECCENTRICITY   = .0000607
INCLINATION    = 53.1593
RA_OF_ASC_NODE = 233.8722
ARG_OF_PERICENTER = 110.0249
MEAN_ANOMALY   = 247.8575

EPHEMERIS_TYPE = 0
CLASSIFICATION_TYPE = U
NORAD_CAT_ID   = 67867
ELEMENT_SET_NO = 999
REV_AT_EPOCH   = 313
BSTAR          = -.23258E-3
MEAN_MOTION_DOT = -.46421E-3
MEAN_MOTION_DDOT = 0

CCSDS_OMM_VERS = 2.0
CREATION_DATE  = 
ORIGINATOR     = 

OBJECT_NAME    = STARLINK-36762
OBJECT_ID      = 2026-034U
CENTER_NAME    = EARTH
REF_FRAME      = TEME
TIME_SYSTEM    = UTC
MEAN_ELEMENT_THEORY = SGP/SGP4

EPOCH          = 2026-03-05T04:00:01.999584
MEAN_MOTION    = 15.80860441
ECCENTRICITY   = .000113
INCLINATION    = 53.1590
RA_OF_ASC_NODE = 233.8636
ARG_OF_PERICENTER = 120.0425
MEAN_ANOMALY   = 242.1269

EPHEMERIS_TYPE = 0
CLASSIFICATION_TYPE = U
NORAD_CAT_ID   = 67868
ELEMENT_SET_NO = 999
REV_AT_EPOCH   = 313
BSTAR          = .19662E-3
MEAN_MOTION_DOT = .38256E-3
MEAN_MOTION_DDOT = 0

CCSDS_OMM_VERS = 2.0
CREATION_DATE  = 
ORIGINATOR     = 

OBJECT_NAME    = STARLINK-36779
OBJECT_ID      = 2026-034V
CENTER_NAME    = EARTH
REF_FRAME      = TEME
TIME_SYSTEM    = UTC
MEAN_ELEMENT_THEORY = SGP/SGP4

EPOCH          = 2026-03-05T04:00:01.999584
MEAN_MOTION    = 15.80846944
ECCENTRICITY   = .0001203
INCLINATION    = 53.1591
RA_OF_ASC_NODE = 233.8543
ARG_OF_PERICENTER = 82.4949
MEAN_ANOMALY   = 283.9542

EPHEMERIS_TYPE = 0
CLASSIFICATION_TYPE = U
NORAD_CAT_ID   = 67869
ELEMENT_SET_NO = 999
REV_AT_EPOCH   = 313
BSTAR          = .24718E-3
MEAN_MOTION_DOT = .483E-3
MEAN_MOTION_DDOT = 0

CCSDS_OMM_VERS = 2.0
CREATION_DATE  = 
ORIGINATOR     = 

OBJECT_NAME    = STARLINK-36770
OBJECT_ID      = 2026-034W
CENTER_NAME    = EARTH
REF_FRAME      = TEME
TIME_SYSTEM    = UTC
MEAN_ELEMENT_THEORY = SGP/SGP4

EPOCH          = 2026-03-05T04:00:01.999584
MEAN_MOTION    = 15.80843958
ECCENTRICITY   = .0000126
INCLINATION    = 53.1593
RA_OF_ASC_NODE = 233.8365
ARG_OF_PERICENTER = 152.2373
MEAN_ANOMALY   = 222.7587

EPHEMERIS_TYPE = 0
CLASSIFICATION_TYPE = U
NORAD_CAT_ID   = 67870
ELEMENT_SET_NO = 999
REV_AT_EPOCH   = 313
BSTAR          = .26059E-3
MEAN_MOTION_DOT = .50969E-3
MEAN_MOTION_DDOT = 0

CCSDS_OMM_VERS = 2.0
CREATION_DATE  = 
ORIGINATOR     = 

OBJECT_NAME    = STARLINK-36769
OBJECT_ID      = 2026-034X
CENTER_NAME    = EARTH
REF_FRAME      = TEME
TIME_SYSTEM    = UTC
MEAN_ELEMENT_THEORY = SGP/SGP4

EPOCH          = 2026-03-05T04:00:01.999584
MEAN_MOTION    = 15.80849858
ECCENTRICITY   = .0000938
INCLINATION    = 53.1592
RA_OF_ASC_NODE = 233.8455
ARG_OF_PERICENTER = 74.8000
MEAN_ANOMALY   = 295.9177

EPHEMERIS_TYPE = 0
CLASSIFICATION_TYPE = U
NORAD_CAT_ID   = 67871
ELEMENT_SET_NO = 999
REV_AT_EPOCH   = 313
BSTAR          = .31721E-3
MEAN_MOTION_DOT = .62292E-3
MEAN_MOTION_DDOT = 0

CCSDS_OMM_VERS = 2.0
CREATION_DATE  = 
ORIGINATOR     = 

OBJECT_NAME    = STARLINK-36786
OBJECT_ID      = 2026-034Y
CENTER_NAME    = EARTH
REF_FRAME      = TEME
TIME_SYSTEM    = UTC
MEAN_ELEMENT_THEORY = SGP/SGP4

EPOCH          = 2026-03-05T04:00:01.999584
MEAN_MOTION    = 15.80861895
ECCENTRICITY   = .0001074
INCLINATION    = 53.1592
RA_OF_ASC_NODE = 233.8278
ARG_OF_PERICENTER = 75.0123
MEAN_ANOMALY   = 304.2506

EPHEMERIS_TYPE = 0
CLASSIFICATION_TYPE = U
NORAD_CAT_ID   = 67872
ELEMENT_SET_NO = 999
REV_AT_EPOCH   = 313
BSTAR          = .89438E-4
MEAN_MOTION_DOT = .16979E-3
MEAN_MOTION_DDOT = 0

CCSDS_OMM_VERS = 2.0
CREATION_DATE  = 
ORIGINATOR     = 

OBJECT_NAME    = STARLINK-36783
OBJECT_ID      = 2026-034Z
CENTER_NAME    = EARTH
REF_FRAME      = TEME
TIME_SYSTEM    = UTC
MEAN_ELEMENT_THEORY = SGP/SGP4

EPOCH          = 2026-03-05T04:00:01.999584
MEAN_MOTION    = 15.80861079
ECCENTRICITY   = .0001044
INCLINATION    = 53.1594
RA_OF_ASC_NODE = 233.8182
ARG_OF_PERICENTER = 136.4098
MEAN_ANOMALY   = 247.1181

EPHEMERIS_TYPE = 0
CLASSIFICATION_TYPE = U
NORAD_CAT_ID   = 67873
ELEMENT_SET_NO = 999
REV_AT_EPOCH   = 313
BSTAR          = .18773E-3
MEAN_MOTION_DOT = .36488E-3
MEAN_MOTION_DDOT = 0

